KUIPER-00074            
1 64821U 25151F   25277.50003471 -.01506769  00000+0 -10936+0 0  9991
2 64821  51.8873 263.2138 0013172 101.3700 355.3808 15.06803442  5242
KUIPER-00075            
1 64822U 25151G   25276.40906041  .00096664  00000+0  24935-2 0  9997
2 64822  51.8757 265.3276 0006185  65.7454 294.4178 15.38355553 12167
KUIPER-00076            
1 64823U 25151H   25277.50003471 -.01860780  00000+0 -15887+0 0  9999
2 64823  51.8886 264.7471 0005707  91.7831  70.2891 15.01044656  4508
KUIPER-00077            
1 64824U 25151J   25277.50003471 -.00015131  00000+0 -18118-2 0  9994
2 64824  51.8975 268.7788 0006742  51.8686 293.8279 14.83176590  5098
KUIPER-00078            
1 64825U 25151K   25277.50003471  .00022087  00000+0  22095-2 0  9990
2 64825  51.8928 266.6085 0007063 124.6723 207.2080 14.91333747  5606
KUIPER-00079            
1 64826U 25151L   25276.38621949  .00005701  00000+0  77541-3 0  9993
2 64826  51.8984 275.8688 0012919  80.3861 279.8561 14.79941209 13216
KUIPER-00080            
1 64827U 25151M   25276.38171816 -.00042162  00000+0 -55247-2 0  9999
2 64827  51.8980 276.1900 0005765  96.4800 263.6819 14.80005519 12017
KUIPER-00082            
1 64828U 25151N   25277.50003471 -.00477389  00000+0 -26584-1 0  9990
2 64828  51.8876 262.1333 0006339  84.3447 272.8581 15.15435551  5661
KUIPER-00083            
1 64829U 25151P   25277.50003471 -.00018640  00000+0 -18898-2 0  9992
2 64829  51.8939 266.5995 0010221  86.9421 105.2894 14.90037693  5729
KUIPER-00084            
1 64830U 25151Q   25276.40573205 -.00001579  00000+0 -18071-3 0  9996
2 64830  51.8986 281.0328 0011735  58.7266 301.4844 14.79215371 11944
KUIPER-00085            
1 64831U 25151R   25277.50003471 -.01321849  00000+0 -77745-1 0  9999
2 64831  51.8920 262.2565 0010606  74.5105 151.7070 15.14493385  4336
KUIPER-00086            
1 64832U 25151S   25277.50003471 -.01454296  00000+0 -18964+0 0  9999
2 64832  51.8978 268.7880 0011436  87.4447  85.0155 14.83419622  3581
KUIPER-00087            
1 64833U 25151T   25277.50003471 -.00320490  00000+0 -10473-1 0  9996
2 64833  51.8793 260.4012 0007921  84.5969  28.6134 15.32495429  4129
KUIPER-00089            
1 64834U 25151U   25277.50003471 -.00731274  00000+0 -34145-1 0  9995
2 64834  51.8866 261.3939 0006074  80.8219 276.1111 15.21740851  3353
KUIPER-00090            
1 64835U 25151V   25277.43198830  .00050616  00000+0  13879-2 0  9996
2 64835  51.8773 260.9164 0008852  88.0198 272.1802 15.36751412 12318
KUIPER-00091            
1 64836U 25151W   25277.50003471  .00030725  00000+0  11978-2 0  9998
2 64836  51.8798 260.8249 0009451  77.0193 154.5333 15.25654505  5876
KUIPER-00092            
1 64837U 25151X   25277.50003471 -.01603995  00000+0 -11168+0 0  9995
2 64837  51.8856 263.2730 0009236  66.3846  94.9688 15.08599357  5336
KUIPER-00093            
1 64838U 25151Y   25277.50003471 -.00634824  00000+0 -54645-1 0  9999
2 64838  51.9145 264.8710 0014509  87.3382 259.5031 14.99310597  5855
KUIPER-00094            
1 64839U 25151Z   25277.50003471  .00026624  00000+0  12384-2 0  9996
2 64839  51.8838 261.4660 0008733  87.9144 174.6620 15.19739850  4798
KUIPER-00081            
1 65132U 25171A   25275.95229294  .00044349  00000+0  11991-2 0  9992
2 65132  51.8741 151.5981 0004259 307.8594  52.2007 15.37272996  9311
KUIPER-00088            
1 65133U 25171B   25277.50003471 -.00304295  00000+0 -10805-1 0  9996
2 65133  51.8782 144.3074 0007074 305.8244 255.0712 15.29775686  4774
KUIPER-00095            
1 65134U 25171C   25276.62427372  .00063736  00000+0  17494-2 0  9991
2 65134  51.8762 148.5926 0003737 340.0050  20.0789 15.36647241  9416
KUIPER-00096            
1 65135U 25171D   25276.09393333  .00079640  00000+0  21437-2 0  9995
2 65135  51.8745 151.0387 0004139 324.2297  35.8412 15.37148359  9337
KUIPER-00097            
1 65136U 25171E   25276.03987640  .00079719  00000+0  21680-2 0  9997
2 65136  51.8743 151.4254 0003795 331.7094  28.3686 15.36829102  9317
KUIPER-00098            
1 65137U 25171F   25277.51464198  .00058049  00000+0  16219-2 0  9995
2 65137  51.8755 144.0702 0005868 290.4753  69.5603 15.36124807  8891
KUIPER-00099            
1 65138U 25171G   25276.34634788  .00089881  00000+0  23983-2 0  9994
2 65138  51.8748 149.7417 0004464 313.7539  46.3078 15.37358223  9365
KUIPER-00100            
1 65139U 25171H   25276.09362296  .00070767  00000+0  19108-2 0  9996
2 65139  51.8745 151.0385 0004578 325.6096  34.4594 15.37104238  9321
KUIPER-00102            
1 65140U 25171J   25275.38950388  .00079367  00000+0  21689-2 0  9996
2 65140  51.8751 154.5637 0003864 335.5415  24.5388 15.36681934  9211
KUIPER-00103            
1 65141U 25171K   25277.50003471 -.00509117  00000+0 -26112-1 0  9993
2 65141  51.8846 145.4603 0004791 323.5687  33.7510 15.18459066  4771
KUIPER-00104            
1 65142U 25171L   25276.61638187  .00083375  00000+0  22570-2 0  9999
2 65142  51.8755 148.5530 0003337 316.8839  43.1885 15.36951897  9407
KUIPER-00105            
1 65143U 25171M   25277.50003471  .00066911  00000+0  23857-2 0  9997
2 65143  51.8789 144.3663 0007400 310.8083 195.7485 15.28255704  5913
KUIPER-00106            
1 65144U 25171N   25277.50003471  .00053680  00000+0  26775-2 0  9999
2 65144  51.8866 145.6304 0006138 297.6569 280.1541 15.16990747  5927
KUIPER-00107            
1 65145U 25171P   25276.09210680  .00070350  00000+0  19042-2 0  9997
2 65145  51.8750 151.0397 0004440 327.5818  32.4895 15.37032127  9338
KUIPER-00108            
1 65146U 25171Q   25276.04113387  .00083873  00000+0  22846-2 0  9999
2 65146  51.8768 151.4443 0004778 319.0671  40.9957 15.36752434  9322
KUIPER-00109            
1 65147U 25171R   25276.34532292  .00094088  00000+0  25149-2 0  9992
2 65147  51.8744 149.7292 0004837 307.4152  52.6394 15.37279634  9366
KUIPER-00110            
1 65148U 25171S   25277.50003471 -.01521112  00000+0 -68209-1 0  9993
2 65148  51.8804 144.9280 0008060 318.2018 264.0402 15.23743660  5906
KUIPER-00111            
1 65149U 25171T   25277.50003471 -.01051508  00000+0 -64223-1 0  9993
2 65149  51.8866 146.4546 0005959 330.1414 265.2137 15.12524351  3081
KUIPER-00112            
1 65150U 25171U   25276.04172185  .00053579  00000+0  14735-2 0  9993
2 65150  51.8754 151.4444 0004759 341.1033  18.9776 15.36660326  9311
KUIPER-00114            
1 65151U 25171V   25277.50003471  .00043404  00000+0  31707-2 0  9991
2 65151  51.8903 147.8543 0005566 307.6535 223.0487 15.03218272  3009
KUIPER-00115            
1 65152U 25171W   25277.50003471 -.01045219  00000+0 -45503-1 0  9999
2 65152  51.8814 144.8003 0007808 325.8686 352.7913 15.24581692  5715
KUIPER-00116            
1 65153U 25171X   25277.50003471  .00052116  00000+0  30897-2 0  9992
2 65153  51.8900 146.6205 0006480 292.0785 152.1233 15.10847762  5654
KUIPER-00118            
1 65154U 25171Y   25277.50003471  .00023188  00000+0  16891-2 0  9998
2 65154  51.8872 147.7006 0003989 318.7723  26.8749 15.03645778  5893
KUIPER-00119            
1 65155U 25171Z   25277.50003471 -.00529377  00000+0 -17274-1 0  9997
2 65155  51.8766 144.1457 0005625 305.7698 319.2911 15.33437974  5400
